CTC1_L_00505008-07
1 59377U 24342NX  26070.40837963  .00000000  00000+0  00000-0 0  9990
2 59377  96.6000  84.0000 0000000   0.0000 312.0000 15.80155680    12
CTC1_L_00505008-08
1 59378U 23151F   26070.40837963  .00000000  00000+0  00000-0 0  9998
2 59378  96.6000  84.0000 0000000   0.0000 357.0000 15.80155680    12
CTC1_L_00505009-01
1 59379U 25172XB  26070.40837963  .00000000  00000+0  00000-0 0  9994
2 59379  96.6000  96.0000 0000000   0.0000  48.0000 15.80155680    13
CTC1_L_00505009-02
1 59380U 26367IQ  26070.40837963  .00000000  00000+0  00000-0 0  9993
2 59380  96.6000  96.0000 0000000   0.0000  93.0000 15.80155680    15
CTC1_L_00505009-03
1 59381U 25772RZ  26070.40837963  .00000000  00000+0  00000-0 0  9993
2 59381  96.6000  96.0000 0000000   0.0000 138.0000 15.80155680    16
CTC1_L_00505009-04
1 59382U 24512IZ  26070.40837963  .00000000  00000+0  00000-0 0  9995
2 59382  96.6000  96.0000 0000000   0.0000 183.0000 15.80155680    17
CTC1_L_00505009-05
1 59383U 22977MD  26070.40837963  .00000000  00000+0  00000-0 0  9999
2 59383  96.6000  96.0000 0000000   0.0000 228.0000 15.80155680    18
CTC1_L_00505009-06
1 59384U 26679BR  26070.40837963  .00000000  00000+0  00000-0 0  9993
2 59384  96.6000  96.0000 0000000   0.0000 273.0000 15.80155680    19
CTC1_L_00505009-07
1 59385U 23130ZL  26070.40837963  .00000000  00000+0  00000-0 0  9993
2 59385  96.6000  96.0000 0000000   0.0000 318.0000 15.80155680    10
CTC1_L_00505009-08
1 59386U 26930LJ  26070.40837963  .00000000  00000+0  00000-0 0  9995
2 59386  96.6000  96.0000 0000000   0.0000   3.0000 15.80155680    12
CTC1_L_00505010-01
1 59387U 26408AV  26070.40837963  .00000000  00000+0  00000-0 0  9996
2 59387  96.6000 108.0000 0000000   0.0000  54.0000 15.80155680    13
CTC1_L_00505010-02
1 59388U 26305HI  26070.40837963  .00000000  00000+0  00000-0 0  9993
2 59388  96.6000 108.0000 0000000   0.0000  99.0000 15.80155680    13
CTC1_L_00505010-03
1 59389U 24998VZ  26070.40837963  .00000000  00000+0  00000-0 0  9990
2 59389  96.6000 108.0000 0000000   0.0000 144.0000 15.80155680    15
CTC1_L_00505010-04
1 59390U 26621XR  26070.40837963  .00000000  00000+0  00000-0 0  9997
2 59390  96.6000 108.0000 0000000   0.0000 189.0000 15.80155680    16
CTC1_L_00505010-05
1 59391U 23080OT  26070.40837963  .00000000  00000+0  00000-0 0  9994
2 59391  96.6000 108.0000 0000000   0.0000 234.0000 15.80155680    18
CTC1_L_00505010-06
1 59392U 24852JT  26070.40837963  .00000000  00000+0  00000-0 0  9993
2 59392  96.6000 108.0000 0000000   0.0000 279.0000 15.80155680    18
CTC1_L_00505010-07
1 59393U 23671VB  26070.40837963  .00000000  00000+0  00000-0 0  9992
2 59393  96.6000 108.0000 0000000   0.0000 324.0000 15.80155680    10
CTC1_L_00505010-08
1 59394U 26509WA  26070.40837963  .00000000  00000+0  00000-0 0  9996
2 59394  96.6000 108.0000 0000000   0.0000   9.0000 15.80155680    11
CTC1_L_00505011-01
1 59395U 25263CJ  26070.40837963  .00000000  00000+0  00000-0 0  9993
2 59395  96.6000 120.0000 0000000   0.0000  60.0000 15.80155680    13
CTC1_L_00505011-02
1 59396U 25443WJ  26070.40837963  .00000000  00000+0  00000-0 0  9994
2 59396  96.6000 120.0000 0000000   0.0000 105.0000 15.80155680    14
CTC1_L_00505011-03
1 59397U 26281OJ  26070.40837963  .00000000  00000+0  00000-0 0  9996
2 59397  96.6000 120.0000 0000000   0.0000 150.0000 15.80155680    15
CTC1_L_00505011-04
1 59398U 24385LL  26070.40837963  .00000000  00000+0  00000-0 0  9990
2 59398  96.6000 120.0000 0000000   0.0000 195.0000 15.80155680    15
CTC1_L_00505011-05
1 59399U 24141HQ  26070.40837963  .00000000  00000+0  00000-0 0  9991
2 59399  96.6000 120.0000 0000000   0.0000 240.0000 15.80155680    17
CTC1_L_00505011-06
1 59400U 22409KB  26070.40837963  .00000000  00000+0  00000-0 0  9999
2 59400  96.6000 120.0000 0000000   0.0000 285.0000 15.80155680    19
CTC1_L_00505011-07
1 59401U 26275VM  26070.40837963  .00000000  00000+0  00000-0 0  9995
2 59401  96.6000 120.0000 0000000   0.0000 330.0000 15.80155680    11
CTC1_L_00505011-08
1 59402U 22375JH  26070.40837963  .00000000  00000+0  00000-0 0  9993
2 59402  96.6000 120.0000 0000000   0.0000  15.0000 15.80155680    12
CTC1_L_00505012-01
1 59403U 24080A   26070.40837963  .00000000  00000+0  00000-0 0  9999
2 59403  96.6000 132.0000 0000000   0.0000  66.0000 15.80155680    12
CTC1_L_00505012-02
1 59404U 25281YJ  26070.40837963  .00000000  00000+0  00000-0 0  9994
2 59404  96.6000 132.0000 0000000   0.0000 111.0000 15.80155680    14
CTC1_L_00505012-03
1 59405U 26894IE  26070.40837963  .00000000  00000+0  00000-0 0  9996
2 59405  96.6000 132.0000 0000000   0.0000 156.0000 15.80155680    14
CTC1_L_00505012-04
1 59406U 23089VO  26070.40837963  .00000000  00000+0  00000-0 0  9990
2 59406  96.6000 132.0000 0000000   0.0000 201.0000 15.80155680    16
CTC1_L_00505012-05
1 59407U 26554IB  26070.40837963  .00000000  00000+0  00000-0 0  9991
2 59407  96.6000 132.0000 0000000   0.0000 246.0000 15.80155680    16
CTC1_L_00505012-06
1 59408U 23124DQ  26070.40837963  .00000000  00000+0  00000-0 0  9992
2 59408  96.6000 132.0000 0000000   0.0000 291.0000 15.80155680    17
CTC1_L_00505012-07
1 59409U 26433YN  26070.40837963  .00000000  00000+0  00000-0 0  9999
2 59409  96.6000 132.0000 0000000   0.0000 336.0000 15.80155680    18
CTC1_L_00505012-08
1 59410U 25247EV  26070.40837963  .00000000  00000+0  00000-0 0  9993
2 59410  96.6000 132.0000 0000000   0.0000  21.0000 15.80155680    11
CTC1_L_00505013-01
1 59411U 26590SC  26070.40837963  .00000000  00000+0  00000-0 0  9996
2 59411  96.6000 144.0000 0000000   0.0000  72.0000 15.80155680    11
CTC1_L_00505013-02
1 59412U 26001TC  26070.40837963  .00000000  00000+0  00000-0 0  9994
2 59412  96.6000 144.0000 0000000   0.0000 117.0000 15.80155680    12
CTC1_L_00505013-03
1 59413U 24609YD  26070.40837963  .00000000  00000+0  00000-0 0  9997
2 59413  96.6000 144.0000 0000000   0.0000 162.0000 15.80155680    13
CTC1_L_00505013-04
1 59414U 26658LQ  26070.40837963  .00000000  00000+0  00000-0 0  9994
2 59414  96.6000 144.0000 0000000   0.0000 207.0000 15.80155680    14
CTC1_L_00505013-05
1 59415U 25642PC  26070.40837963  .00000000  00000+0  00000-0 0  9997
2 59415  96.6000 144.0000 0000000   0.0000 252.0000 15.80155680    15
CTC1_L_00505013-06
1 59416U 24333VK  26070.40837963  .00000000  00000+0  00000-0 0  9994
2 59416  96.6000 144.0000 0000000   0.0000 297.0000 15.80155680    15
CTC1_L_00505013-07
1 59417U 25843KR  26070.40837963  .00000000  00000+0  00000-0 0  9992
2 59417  96.6000 144.0000 0000000   0.0000 342.0000 15.80155680    17
CTC1_L_00505013-08
1 59418U 26394PJ  26070.40837963  .00000000  00000+0  00000-0 0  9995
2 59418  96.6000 144.0000 0000000   0.0000  27.0000 15.80155680    18
CTC1_L_00505014-01
1 59419U 24225WA  26070.40837963  .00000000  00000+0  00000-0 0  9997
2 59419  96.6000 156.0000 0000000   0.0000  78.0000 15.80155680    18
CTC1_L_00505014-02
1 59420U 23644CW  26070.40837963  .00000000  00000+0  00000-0 0  9993
2 59420  96.6000 156.0000 0000000   0.0000 123.0000 15.80155680    11
CTC1_L_00505014-03
1 59421U 25675NJ  26070.40837963  .00000000  00000+0  00000-0 0  9990
2 59421  96.6000 156.0000 0000000   0.0000 168.0000 15.80155680    11
CTC1_L_00505014-04
1 59422U 25196EP  26070.40837963  .00000000  00000+0  00000-0 0  9999
2 59422  96.6000 156.0000 0000000   0.0000 213.0000 15.80155680    13
CTC1_L_00505014-05
1 59423U 25514JN  26070.40837963  .00000000  00000+0  00000-0 0  9994
2 59423  96.6000 156.0000 0000000   0.0000 258.0000 15.80155680    13
CTC1_L_00505014-06
1 59424U 23143KG  26070.40837963  .00000000  00000+0  00000-0 0  9991
2 59424  96.6000 156.0000 0000000   0.0000 303.0000 15.80155680    15
CTC1_L_00505014-07
1 59425U 22156VN  26070.40837963  .00000000  00000+0  00000-0 0  9995
2 59425  96.6000 156.0000 0000000   0.0000 348.0000 15.80155680    15
CTC1_L_00505014-08
1 59426U 26349EE  26070.40837963  .00000000  00000+0  00000-0 0  9994
2 59426  96.6000 156.0000 0000000   0.0000  33.0000 15.80155680    17
CTC1_L_00505015-01
1 59427U 25929SW  26070.40837963  .00000000  00000+0  00000-0 0  9998
2 59427  96.6000 168.0000 0000000   0.0000  84.0000 15.80155680    17
CTC1_L_00505015-02
1 59428U 25575ZE  26070.40837963  .00000000  00000+0  00000-0 0  9996
2 59428  96.6000 168.0000 0000000   0.0000 129.0000 15.80155680    18
CTC1_L_00505015-03
1 59429U 24859TU  26070.40837963  .00000000  00000+0  00000-0 0  9991
2 59429  96.6000 168.0000 0000000   0.0000 174.0000 15.80155680    19
CTC1_L_00505015-04
1 59430U 24128FO  26070.40837963  .00000000  00000+0  00000-0 0  9992
2 59430  96.6000 168.0000 0000000   0.0000 219.0000 15.80155680    11
CTC1_L_00505015-05
1 59431U 25332SC  26070.40837963  .00000000  00000+0  00000-0 0  9991
2 59431  96.6000 168.0000 0000000   0.0000 264.0000 15.80155680    12
CTC1_L_00505015-06
1 59432U 25275IH  26070.40837963  .00000000  00000+0  00000-0 0  9998
2 59432  96.6000 168.0000 0000000   0.0000 309.0000 15.80155680    13
CTC1_L_00505015-07
1 59433U 22626GB  26070.40837963  .00000000  00000+0  00000-0 0  9996
2 59433  96.6000 168.0000 0000000   0.0000 354.0000 15.80155680    14
CTC1_L_00505015-08
1 59434U 23337KU  26070.40837963  .00000000  00000+0  00000-0 0  9997
2 59434  96.6000 168.0000 0000000   0.0000  39.0000 15.80155680    15
CTC1_L_00505016-01
1 59435U 26994K   26070.40837963  .00000000  00000+0  00000-0 0  9990
2 59435  96.6000 180.0000 0000000   0.0000  90.0000 15.80155680    17
CTC1_L_00505016-02
1 59436U 23187FN  26070.40837963  .00000000  00000+0  00000-0 0  9992
2 59436  96.6000 180.0000 0000000   0.0000 135.0000 15.80155680    18
CTC1_L_00505016-03
1 59437U 23109CV  26070.40837963  .00000000  00000+0  00000-0 0  9997
2 59437  96.6000 180.0000 0000000   0.0000 180.0000 15.80155680    19
CTC1_L_00505016-04
1 59438U 22486AD  26070.40837963  .00000000  00000+0  00000-0 0  9995
2 59438  96.6000 180.0000 0000000   0.0000 225.0000 15.80155680    10
